satname,norad_id,inclination_deg,eccentricity,mean_motion_rev_per_day,perigee_km,apogee_km,l1,l2
STARLINK-1572,46060,53.1621,0.0001213,15.30177769,474.45012832405337,476.11276763953356,1 46060U 20055AK  26173.75542834  .00006356  00000+0  22668-3 0  9991,2 46060  53.1621 346.0949 0001213 100.5083 259.6055 15.30177769325126
STARLINK-1573,46061,53.1622,0.0001072,15.31700326,470.0048239270709,471.4732229464953,1 46061U 20055AL  26173.19692299  .00000370  00000+0  23673-4 0  9999,2 46061  53.1622 347.6889 0001072 134.9387 225.1702 15.31700326325083
STARLINK-1577,46063,53.1601,0.0001015,15.31707867,470.02138557364833,471.41170284312193,1 46063U 20055AN  26173.74688397  .00001012  00000+0  44371-4 0  9998,2 46063  53.1601 345.1258 0001015  69.2050 290.9060 15.31707867325162
STARLINK-1583,46064,53.1603,0.0001153,15.31704072,469.93818271443615,471.51753095042204,1 46064U 20055AP  26172.91268200 -.00000091  00000+0  88327-5 0  9991,2 46064  53.1603 349.5104 0001153  77.1018 283.0113 15.31704072325020
STARLINK-1536,46070,53.1604,0.0001068,15.3170694,469.9878496712445,471.4507653785313,1 46070U 20055AV  26172.84873032  .00004901  00000+0  16956-3 0  9995,2 46070  53.1604 337.1941 0001068  91.0337 269.0787 15.31706940325199
STARLINK-1542,46073,53.1601,0.0001025,15.31716435,469.9889989135281,471.39300865430323,1 46073U 20055AY  26173.85184109  .00004249  00000+0  14852-3 0  9998,2 46073  53.1601 335.4924 0001025  87.8603 272.2516 15.31716435325290
STARLINK-1549,46074,53.0508,0.0001726,15.32925602,465.90748782249375,468.2704598286573,1 46074U 20055AZ  26173.83335648  .00040978  00000+0  12751-2 0  9997,2 46074  53.0508 332.6948 0001726  92.8559 322.9750 15.32925602  5731
STARLINK-1551,46075,53.1619,0.0001572,15.31705452,469.64710223673137,471.8003840543761,1 46075U 20055BA  26173.16598112 -.00001446  00000+0 -34818-4 0  9990,2 46075  53.1619 335.6540 0001572  37.3116 322.7995 15.31705452325236
STARLINK-1552,46076,53.1608,0.0001071,15.31707099,469.98532109800726,471.4523460175542,1 46076U 20055BB  26173.73918941  .00001723  00000+0  67245-4 0  9996,2 46076  53.1608 332.5681 0001071  83.3907 276.7216 15.31707099325312
STARLINK-1559,46077,53.0221,0.0001624,15.39733523,445.7882775129956,448.00504844673105,1 46077U 20055BC  26173.72985915  .00044926  00000+0  11222-2 0  9995,2 46077  53.0221 301.1037 0001624 338.6434  21.4501 15.39733523325710
STARLINK-1566,46079,53.1605,0.0001461,15.31681565,469.7943205947149,471.79557851037407,1 46079U 20055BE  26173.74384554  .00009400  00000+0  31447-3 0  9991,2 46079  53.1605 332.4015 0001461  87.6028 272.5140 15.31681565325337
STARLINK-1568,46080,53.057,0.0003077,15.55498986,398.6166774935409,402.78837533809747,1 46080U 20055BF  26173.46894964  .00031909  00000+0  46407-3 0  9994,2 46080  53.0570 249.6114 0003077  62.9792 297.1533 15.55498986326459
STARLINK-1578,46082,53.161,0.0001079,15.31718717,469.94521358312613,471.42318919838544,1 46082U 20055BH  26173.16097884  .00000869  00000+0  39736-4 0  9998,2 46082  53.1610 335.6314 0001079 101.4361 258.6762 15.31718717325238
STARLINK-1579,46083,53.1611,0.0001257,15.31641034,470.054849508635,471.7767013763805,1 46083U 20055BJ  26173.73454637  .00033703  00000+0  10949-2 0  9991,2 46083  53.1611 332.4985 0001257 127.0164 233.0952 15.31641034325327
STARLINK-1622,46128,53.0123,0.0004446,15.90869929,296.87825456870723,302.81631819615814,1 46128U 20057M   26173.00002315  .00218174  28628-4  69028-3 0  9996,2 46128  53.0123  64.1040 0004446 157.9623 172.5218 15.90869929  6025
STARLINK-1623,46129,53.0381,0.0004546,15.78337679,332.09830895041887,338.20202964474447,1 46129U 20057N   26173.07140694  .00124206  00000+0  69949-3 0  9990,2 46129  53.0381 103.1682 0004546  92.1601 267.9940 15.78337679323273
STARLINK-1596,46141,53.0308,0.0005267,15.62252646,377.59156917958717,384.711803881979,1 46141U 20057AA  26173.04576752  .00088310  00000+0  97821-3 0  9994,2 46141  53.0308  87.4064 0005267  89.8558 270.3058 15.62252646323494
STARLINK-1597,46142,53.0383,0.0004646,15.77942261,333.1521340678728,339.3911625838973,1 46142U 20057AB  26173.62150733  .00120264  00000+0  68980-3 0  9995,2 46142  53.0383 140.2011 0004646  78.9569 281.1974 15.77942261322793
STARLINK-1606,46144,53.0267,0.000521,16.12815231,235.68401135431213,242.57920524416022,1 46144U 20057AD  26173.80111830  .01071517  73973-3  92499-3 0  9994,2 46144  53.0267  89.3795 0005210 222.0203 138.0432 16.12815231311774
STARLINK-1608,46146,53.1573,0.0005939,15.37379985,449.8028834987681,457.9179300185151,1 46146U 20057AF  26173.29053401  .00036185  00000+0  97866-3 0  9999,2 46146  53.1573 181.4511 0005939  26.8214 333.3096 15.37379985322222
STARLINK-1667,46155,53.0072,0.0005706,16.0218979,264.56325196672606,272.1482294824418,1 46155U 20057AQ  26173.83335648  .00439118  96616-4  73994-3 0  9997,2 46155  53.0072  58.1334 0005706 210.2935 309.2790 16.02189790  6069
STARLINK-1545,46156,53.034,0.0004269,15.93759983,288.9244191834723,294.6191873196876,1 46156U 20057AR  26173.80606666  .00298901  45545-4  81011-3 0  9993,2 46156  53.0340  95.3291 0004269 215.6755 144.3987 15.93759983324699
STARLINK-1595,46159,53.0365,0.0005439,15.75530797,339.46546864773063,346.7768532752243,1 46159U 20057AU  26173.29377126  .00118682  00000+0  75725-3 0  9999,2 46159  53.0365 144.8379 0005439  70.5101 289.6505 15.75530797323967
STARLINK-1598,46160,53.0416,8.19e-05,15.74889638,344.39462720334905,345.4958680755126,1 46160U 20057AV  26173.58944431  .00092566  00000+0  61055-3 0  9995,2 46160  53.0416 129.5713 0000819  19.3103 340.7946 15.74889638324192
STARLINK-1626,46167,53.0373,0.0001631,15.78663473,333.1317221927984,335.32129516932946,1 46167U 20057BC  26173.60943590  .00113526  00000+0  63145-3 0  9992,2 46167  53.0373 138.5430 0001631 120.8988 239.2193 15.78663473322824
STARLINK-1633,46171,53.0311,0.0003329,15.886252,303.91127688087636,308.3616661582146,1 46171U 20057BG  26173.78830284  .00206827  00000+0  70802-3 0  9996,2 46171  53.0311  97.7258 0003329 205.0033 155.0830 15.88625200324662
STARLINK-1635,46172,53.0302,0.0005435,15.98677606,274.46911175537207,281.7044269926828,1 46172U 20057BH  26173.83335648  .00385724  73214-4  79666-3 0  9990,2 46172  53.0302  94.5212 0005435 213.7665   8.9004 15.98677606  5613
STARLINK-1640,46173,53.0378,0.0005152,15.75751885,339.02998781709357,345.9549244086729,1 46173U 20057BJ  26173.83698138  .00109091  00000+0  69052-3 0  9994,2 46173  53.0378 143.1528 0005152  68.4177 291.7390 15.75751885322773
